start=new Date('2023-06-22T00:00:00.000Z').valueOf();
sats=[{"APOAPSIS":"547.998","RA_OF_ASC_NODE":"355.5776","TLE_LINE1":"1 47773U 21017BD  23172.53349091  .00014377  00000-0  98179-3 0  9997","SITE":"AFETR","REF_FRAME":"TEME","NORAD_CAT_ID":"47773","PERIOD":"95.591","RCS_SIZE":"LARGE","ARG_OF_PERICENTER":"118.8298","TIME_SYSTEM":"UTC","MEAN_MOTION":"15.06410760","FILE":"3938970","ECCENTRICITY":"0.00011800","GP_ID":"234407723","PERIAPSIS":"546.363","COUNTRY_CODE":"US","DECAY_DATE":null,"CENTER_NAME":"EARTH","MEAN_MOTION_DOT":"0.00014377","MEAN_MOTION_DDOT":"0.0000000000000","LAUNCH_DATE":"2021-03-04","TLE_LINE2":"2 47773  53.0560 355.5776 0001180 118.8298 241.2809 15.06410760127415","OBJECT_TYPE":"PAYLOAD","SEMIMAJOR_AXIS":"6925.316","OBJECT_ID":"2021-017BD","OBJECT_NAME":"STARLINK-2196","ELEMENT_SET_NO":"999","CLASSIFICATION_TYPE":"U","MEAN_ANOMALY":"241.2809","EPOCH":"2023-06-21T12:48:13.614624","MEAN_ELEMENT_THEORY":"SGP4","INCLINATION":"53.0560","REV_AT_EPOCH":"12741","EPHEMERIS_TYPE":"0","BSTAR":"0.00098179000000"},{"RCS_SIZE":"LARGE","ARG_OF_PERICENTER":"102.6692","PERIOD":"95.590","NORAD_CAT_ID":"47774","TLE_LINE1":"1 47774U 21017BE  23172.79518764  .00020289  00000-0  13759-2 0  9990","REF_FRAME":"TEME","SITE":"AFETR","RA_OF_ASC_NODE":"354.4066","APOAPSIS":"547.980","DECAY_DATE":null,"CENTER_NAME":"EARTH","COUNTRY_CODE":"US","PERIAPSIS":"546.260","ECCENTRICITY":"0.00012420","FILE":"3939184","GP_ID":"234439629","MEAN_MOTION":"15.06430407","TIME_SYSTEM":"UTC","OBJECT_ID":"2021-017BE","OBJECT_NAME":"STARLINK-2197","SEMIMAJOR_AXIS":"6925.255","OBJECT_TYPE":"PAYLOAD","TLE_LINE2":"2 47774  53.0551 354.4066 0001242 102.6692 257.4436 15.06430407127453","LAUNCH_DATE":"2021-03-04","MEAN_MOTION_DOT":"0.00020289","MEAN_MOTION_DDOT":"0.0000000000000","BSTAR":"0.00137590000000","EPHEMERIS_TYPE":"0","REV_AT_EPOCH":"12745","INCLINATION":"53.0551","MEAN_ELEMENT_THEORY":"SGP4","EPOCH":"2023-06-21T19:05:04.212096","ELEMENT_SET_NO":"999","MEAN_ANOMALY":"257.4436","CLASSIFICATION_TYPE":"U"},{"MEAN_MOTION_DDOT":"0.0000000000000","MEAN_MOTION_DOT":"0.00020132","TLE_LINE2":"2 47775  53.0550 354.3580 0000685 113.1387 246.9674 15.06432470127461","LAUNCH_DATE":"2021-03-04","SEMIMAJOR_AXIS":"6925.249","OBJECT_TYPE":"PAYLOAD","OBJECT_NAME":"STARLINK-2198","OBJECT_ID":"2021-017BF","EPOCH":"2023-06-21T19:20:59.558496","CLASSIFICATION_TYPE":"U","MEAN_ANOMALY":"246.9674","ELEMENT_SET_NO":"999","REV_AT_EPOCH":"12746","INCLINATION":"53.0550","MEAN_ELEMENT_THEORY":"SGP4","EPHEMERIS_TYPE":"0","BSTAR":"0.00136540000000","APOAPSIS":"547.588","SITE":"AFETR","REF_FRAME":"TEME","TLE_LINE1":"1 47775U 21017BF  23172.80624489  .00020132  00000-0  13654-2 0  9996","RA_OF_ASC_NODE":"354.3580","ARG_OF_PERICENTER":"113.1387","RCS_SIZE":"LARGE","PERIOD":"95.590","NORAD_CAT_ID":"47775","TIME_SYSTEM":"UTC","GP_ID":"234439094","FILE":"3939144","ECCENTRICITY":"0.00006850","MEAN_MOTION":"15.06432470","CENTER_NAME":"EARTH","DECAY_DATE":null,"PERIAPSIS":"546.640","COUNTRY_CODE":"US"},{"DECAY_DATE":null,"CENTER_NAME":"EARTH","PERIAPSIS":"546.254","COUNTRY_CODE":"US","ECCENTRICITY":"0.00012370","FILE":"3939233","GP_ID":"234441200","MEAN_MOTION":"15.06433701","TIME_SYSTEM":"UTC","RCS_SIZE":"LARGE","PERIOD":"95.590","ARG_OF_PERICENTER":"90.3307","NORAD_CAT_ID":"47776","TLE_LINE1":"1 47776U 21017BG  23172.76662406  .00023861  00000-0  16139-2 0  9996","REF_FRAME":"TEME","SITE":"AFETR","RA_OF_ASC_NODE":"344.5326","APOAPSIS":"547.967","BSTAR":"0.00161390000000","EPHEMERIS_TYPE":"0","INCLINATION":"53.0556","REV_AT_EPOCH":"12759","MEAN_ELEMENT_THEORY":"SGP4","EPOCH":"2023-06-21T18:23:56.318784","ELEMENT_SET_NO":"999","CLASSIFICATION_TYPE":"U","MEAN_ANOMALY":"269.7824","OBJECT_ID":"2021-017BG","OBJECT_NAME":"STARLINK-2209","SEMIMAJOR_AXIS":"6925.245","OBJECT_TYPE":"PAYLOAD","TLE_LINE2":"2 47776  53.0556 344.5326 0001237  90.3307 269.7824 15.06433701127591","LAUNCH_DATE":"2021-03-04","MEAN_MOTION_DOT":"0.00023861","MEAN_MOTION_DDOT":"0.0000000000000"},{"SEMIMAJOR_AXIS":"6925.307","OBJECT_TYPE":"PAYLOAD","OBJECT_NAME":"STARLINK-2210","OBJECT_ID":"2021-017BH","MEAN_MOTION_DOT":"0.00013704","MEAN_MOTION_DDOT":"0.0000000000000","TLE_LINE2":"2 47777  53.0561 345.7088 0001369  72.4800 287.6339 15.06413622128200","LAUNCH_DATE":"2021-03-04","REV_AT_EPOCH":"12820","INCLINATION":"53.0561","MEAN_ELEMENT_THEORY":"SGP4","BSTAR":"0.00093674000000","EPHEMERIS_TYPE":"0","EPOCH":"2023-06-21T12:07:05.963232","CLASSIFICATION_TYPE":"U","MEAN_ANOMALY":"287.6339","ELEMENT_SET_NO":"999","REF_FRAME":"TEME","SITE":"AFETR","TLE_LINE1":"1 47777U 21017BH  23172.50493013  .00013704  00000-0  93674-3 0  9990","RA_OF_ASC_NODE":"345.7088","ARG_OF_PERICENTER":"72.4800","RCS_SIZE":"LARGE","PERIOD":"95.591","NORAD_CAT_ID":"47777","APOAPSIS":"548.120","GP_ID":"234433376","FILE":"3939133","ECCENTRICITY":"0.00013690","MEAN_MOTION":"15.06413622","CENTER_NAME":"EARTH","DECAY_DATE":null,"COUNTRY_CODE":"US","PERIAPSIS":"546.224","TIME_SYSTEM":"UTC"},{"CENTER_NAME":"EARTH","DECAY_DATE":null,"COUNTRY_CODE":"US","PERIAPSIS":"546.514","GP_ID":"234441218","ECCENTRICITY":"0.00008740","FILE":"3939234","MEAN_MOTION":"15.06430913","TIME_SYSTEM":"UTC","PERIOD":"95.590","RCS_SIZE":"LARGE","ARG_OF_PERICENTER":"97.6383","NORAD_CAT_ID":"47778","REF_FRAME":"TEME","SITE":"AFETR","TLE_LINE1":"1 47778U 21017BJ  23172.73713657  .00023079  00000-0  15619-2 0  9993","RA_OF_ASC_NODE":"344.6682","APOAPSIS":"547.724","EPHEMERIS_TYPE":"0","BSTAR":"0.00156190000000","REV_AT_EPOCH":"12759","INCLINATION":"53.0551","MEAN_ELEMENT_THEORY":"SGP4","EPOCH":"2023-06-21T17:41:28.599648","MEAN_ANOMALY":"262.4705","CLASSIFICATION_TYPE":"U","ELEMENT_SET_NO":"999","OBJECT_NAME":"STARLINK-2211","OBJECT_ID":"2021-017BJ","SEMIMAJOR_AXIS":"6925.254","OBJECT_TYPE":"PAYLOAD","TLE_LINE2":"2 47778  53.0551 344.6682 0000874  97.6383 262.4705 15.06430913127594","LAUNCH_DATE":"2021-03-04","MEAN_MOTION_DOT":"0.00023079","MEAN_MOTION_DDOT":"0.0000000000000"},{"LAUNCH_DATE":"2021-03-04","TLE_LINE2":"2 47779  53.0466 299.4336 0001916 339.0482  18.5388 15.45095762128224","MEAN_MOTION_DOT":"0.00162186","MEAN_MOTION_DDOT":"0.0000000000000","OBJECT_ID":"2021-017BK","OBJECT_NAME":"STARLINK-2212","OBJECT_TYPE":"PAYLOAD","SEMIMAJOR_AXIS":"6809.234","ELEMENT_SET_NO":"999","MEAN_ANOMALY":"18.5388","CLASSIFICATION_TYPE":"U","EPOCH":"2023-06-21T14:00:01.000224","BSTAR":"0.00331300000000","EPHEMERIS_TYPE":"0","MEAN_ELEMENT_THEORY":"SGP4","INCLINATION":"53.0466","REV_AT_EPOCH":"12822","APOAPSIS":"432.403","NORAD_CAT_ID":"47779","RCS_SIZE":"LARGE","PERIOD":"93.198","ARG_OF_PERICENTER":"339.0482","RA_OF_ASC_NODE":"299.4336","TLE_LINE1":"1 47779U 21017BK  23172.58334491  .00162186  00000-0  33130-2 0  9993","SITE":"AFETR","REF_FRAME":"TEME","TIME_SYSTEM":"UTC","COUNTRY_CODE":"US","PERIAPSIS":"429.794","DECAY_DATE":null,"CENTER_NAME":"EARTH","MEAN_MOTION":"15.45095762","ECCENTRICITY":"0.00019160","FILE":"3938982","GP_ID":"234407743"},{"MEAN_MOTION_DDOT":"0.0000000000000","MEAN_MOTION_DOT":"0.00024572","TLE_LINE2":"2 47780  53.0553 344.5517 0001338  95.8857 264.2284 15.06433360127600","LAUNCH_DATE":"2021-03-04","SEMIMAJOR_AXIS":"6925.246","OBJECT_TYPE":"PAYLOAD","OBJECT_ID":"2021-017BL","OBJECT_NAME":"STARLINK-2213","EPOCH":"2023-06-21T18:18:37.792224","ELEMENT_SET_NO":"999","CLASSIFICATION_TYPE":"U","MEAN_ANOMALY":"264.2284","REV_AT_EPOCH":"12760","INCLINATION":"53.0553","MEAN_ELEMENT_THEORY":"SGP4","EPHEMERIS_TYPE":"0","BSTAR":"0.00166130000000","APOAPSIS":"548.038","TLE_LINE1":"1 47780U 21017BL  23172.76293741  .00024572  00000-0  16613-2 0  9990","SITE":"AFETR","REF_FRAME":"TEME","RA_OF_ASC_NODE":"344.5517","ARG_OF_PERICENTER":"95.8857","RCS_SIZE":"LARGE","PERIOD":"95.590","NORAD_CAT_ID":"47780","TIME_SYSTEM":"UTC","ECCENTRICITY":"0.00013380","FILE":"3939234","GP_ID":"234441216","MEAN_MOTION":"15.06433360","DECAY_DATE":null,"CENTER_NAME":"EARTH","COUNTRY_CODE":"US","PERIAPSIS":"546.185"},{"APOAPSIS":"547.933","RA_OF_ASC_NODE":"344.4064","TLE_LINE1":"1 47781U 21017BM  23172.79611114  .00013216  00000-0  90394-3 0  9994","REF_FRAME":"TEME","SITE":"AFETR","NORAD_CAT_ID":"47781","RCS_SIZE":"LARGE","PERIOD":"95.591","ARG_OF_PERICENTER":"97.9317","TIME_SYSTEM":"UTC","MEAN_MOTION":"15.06420898","FILE":"3939234","ECCENTRICITY":"0.00011320","GP_ID":"234441210","COUNTRY_CODE":"US","PERIAPSIS":"546.366","DECAY_DATE":null,"CENTER_NAME":"EARTH","MEAN_MOTION_DOT":"0.00013216","MEAN_MOTION_DDOT":"0.0000000000000","LAUNCH_DATE":"2021-03-04","TLE_LINE2":"2 47781  53.0542 344.4064 0001132  97.9317 262.1801 15.06420898127593","OBJECT_TYPE":"PAYLOAD","SEMIMAJOR_AXIS":"6925.285","OBJECT_ID":"2021-017BM","OBJECT_NAME":"STARLINK-2223","ELEMENT_SET_NO":"999","MEAN_ANOMALY":"262.1801","CLASSIFICATION_TYPE":"U","EPOCH":"2023-06-21T19:06:24.002496","MEAN_ELEMENT_THEORY":"SGP4","REV_AT_EPOCH":"12759","INCLINATION":"53.0542","BSTAR":"0.00090394000000","EPHEMERIS_TYPE":"0"},{"TIME_SYSTEM":"UTC","COUNTRY_CODE":"US","PERIAPSIS":"546.302","DECAY_DATE":null,"CENTER_NAME":"EARTH","MEAN_MOTION":"15.06414326","FILE":"3939253","ECCENTRICITY":"0.00012530","GP_ID":"234441873","APOAPSIS":"548.037","NORAD_CAT_ID":"47787","PERIOD":"95.591","RCS_SIZE":"LARGE","ARG_OF_PERICENTER":"93.9436","RA_OF_ASC_NODE":"24.6189","TLE_LINE1":"1 47787U 21018A   23172.74819454  .00004687  00000-0  33320-3 0  9991","SITE":"AFETR","REF_FRAME":"TEME","ELEMENT_SET_NO":"999","MEAN_ANOMALY":"266.1696","CLASSIFICATION_TYPE":"U","EPOCH":"2023-06-21T17:57:24.008256","BSTAR":"0.00033320000000","EPHEMERIS_TYPE":"0","MEAN_ELEMENT_THEORY":"SGP4","REV_AT_EPOCH":"12674","INCLINATION":"53.0547","LAUNCH_DATE":"2021-03-11","TLE_LINE2":"2 47787  53.0547  24.6189 0001253  93.9436 266.1696 15.06414326126742","MEAN_MOTION_DOT":"0.00004687","MEAN_MOTION_DDOT":"0.0000000000000","OBJECT_ID":"2021-018A","OBJECT_NAME":"STARLINK-2257","OBJECT_TYPE":"PAYLOAD","SEMIMAJOR_AXIS":"6925.305"}];
